[{"OBJECT_NAME":"QIANFAN-7","OBJECT_ID":"2024-140G","EPOCH":"2026-03-09T22:22:28.116768","MEAN_MOTION":14.27774901,"ECCENTRICITY":0.00169421,"INCLINATION":88.9727,"RA_OF_ASC_NODE":283.4803,"ARG_OF_PERICENTER":110.6267,"MEAN_ANOMALY":249.6747,"EPHEMERIS_TYPE":0,"CLASSIFICATION_TYPE":"U","NORAD_CAT_ID":60385,"ELEMENT_SET_NO":999,"REV_AT_EPOCH":8283,"BSTAR":0.00011108135,"MEAN_MOTION_DOT":2.89e-6,"MEAN_MOTION_DDOT":0},{"OBJECT_NAME":"DMSP 5D-2 F13 DEB","OBJECT_ID":"1995-015FF","EPOCH":"2026-03-09T23:28:36.647616","MEAN_MOTION":14.25262049,"ECCENTRICITY":0.00304658,"INCLINATION":98.6207,"RA_OF_ASC_NODE":87.2356,"ARG_OF_PERICENTER":226.7348,"MEAN_ANOMALY":133.1289,"EPHEMERIS_TYPE":0,"CLASSIFICATION_TYPE":"U","NORAD_CAT_ID":40608,"ELEMENT_SET_NO":999,"REV_AT_EPOCH":56523,"BSTAR":0.00029579324,"MEAN_MOTION_DOT":6.56e-6,"MEAN_MOTION_DDOT":0}]
